[{"OBJECT_NAME":"STARLINK-2661","OBJECT_ID":"2021-040AT","EPOCH":"2026-03-10T00:00:02.999808","MEAN_MOTION":15.25451954,"ECCENTRICITY":0.00013299,"INCLINATION":53.1375,"RA_OF_ASC_NODE":189.5495,"ARG_OF_PERICENTER":106.2776,"MEAN_ANOMALY":340.703,"EPHEMERIS_TYPE":0,"CLASSIFICATION_TYPE":"U","NORAD_CAT_ID":48469,"ELEMENT_SET_NO":999,"REV_AT_EPOCH":574,"BSTAR":0.058940308,"MEAN_MOTION_DOT":0.01671611,"MEAN_MOTION_DDOT":0},{"OBJECT_NAME":"ELECTRON KICK STAGE R\/B","OBJECT_ID":"2025-267B","EPOCH":"2026-03-09T22:44:49.176096","MEAN_MOTION":15.38247043,"ECCENTRICITY":0.00141763,"INCLINATION":42.0167,"RA_OF_ASC_NODE":270.4493,"ARG_OF_PERICENTER":291.2023,"MEAN_ANOMALY":68.7302,"EPHEMERIS_TYPE":0,"CLASSIFICATION_TYPE":"U","NORAD_CAT_ID":66555,"ELEMENT_SET_NO":999,"REV_AT_EPOCH":1681,"BSTAR":0.00086858466,"MEAN_MOTION_DOT":0.00033474,"MEAN_MOTION_DDOT":0}]
